GLOBALSTAR M024 [-]     
1 25883U 99043A   23292.33415284  .00000009  00000+0  26032-2 0  9992
2 25883  52.0025 309.8768 0001318 173.2387 281.8300 11.10154939 47464
GLOBALSTAR M027 [-]     
1 25884U 99043B   23292.42771852 -.00000097  00000+0 -12444-2 0  9990
2 25884  52.0253  10.4609 0021698  92.2186 268.1092 11.04365208 74201
GLOBALSTAR M054 [-]     
1 25885U 99043C   23292.10795690 -.00000098  00000+0 -69070-3 0  9991
2 25885  52.0127 240.3446 0004012 200.2097 172.1614 11.39204316 49866
GLOBALSTAR M053 [-]     
1 25886U 99043D   23292.07727990 -.00000050  00000+0  54989-3 0  9996
2 25886  51.9955 153.8365 0004027 119.0826  50.8866 11.27651764 50958
GLOBALSTAR M058 [-]     
1 25907U 99049A   23292.38415690 -.00000069  00000+0  20457-3 0  9994
2 25907  51.9936 289.4536 0002207 171.1220 188.9654 11.93167414469108
GLOBALSTAR M050 [-]     
1 25908U 99049B   23292.34484506 -.00000159  00000+0 -80418-3 0  9997
2 25908  52.0014 342.5696 0008705 261.4032 182.1386 12.07422208 74885
GLOBALSTAR M033 [-]     
1 25909U 99049C   23292.23012598 -.00000154  00000+0 -59841-3 0  9995
2 25909  51.9902 256.6384 0011791 105.5608 254.6541 12.20261693461641
GLOBALSTAR M055 [-]     
1 25910U 99049D   23292.25768762 -.00000049  00000+0  38996-3 0  9990
2 25910  52.0017 296.8445 0006889 313.8156  46.2125 12.29389243 93634
